[{"OBJECT_NAME":"STARLINK-32778","OBJECT_ID":"2025-008S","EPOCH":"2026-03-09T00:02:45.356640","MEAN_MOTION":15.27606177,"ECCENTRICITY":0.00024982,"INCLINATION":43.0038,"RA_OF_ASC_NODE":282.2901,"ARG_OF_PERICENTER":277.9089,"MEAN_ANOMALY":82.1479,"EPHEMERIS_TYPE":0,"CLASSIFICATION_TYPE":"U","NORAD_CAT_ID":62603,"ELEMENT_SET_NO":999,"REV_AT_EPOCH":6545,"BSTAR":0.0012959095,"MEAN_MOTION_DOT":0.00035601,"MEAN_MOTION_DDOT":0},{"OBJECT_NAME":"OBJECT A","OBJECT_ID":"2025-013A","EPOCH":"2026-03-09T23:29:31.895232","MEAN_MOTION":15.29260221,"ECCENTRICITY":0.0010321,"INCLINATION":97.6364,"RA_OF_ASC_NODE":244.5149,"ARG_OF_PERICENTER":282.3775,"MEAN_ANOMALY":77.6309,"EPHEMERIS_TYPE":0,"CLASSIFICATION_TYPE":"U","NORAD_CAT_ID":62729,"ELEMENT_SET_NO":999,"REV_AT_EPOCH":6276,"BSTAR":0.0013206527,"MEAN_MOTION_DOT":0.00037616,"MEAN_MOTION_DDOT":0}]
